48779,ONEWEB-0229,2021,109.46,148.0,+,87.91,Active,1,LEO,Russia,UK,Commercial,Communications,Soyuz,1 48779U 21045N   24364.30266438  .00000219  00000+0  54804-3 0  9993,2 48779  87.9060   5.6901 0001608  86.7670 273.3644 13.15550950174080,13.1555095,0.0001608,LEO
48780,ONEWEB-0228,2021,109.46,148.0,+,87.91,Active,1,LEO,Russia,UK,Commercial,Communications,Soyuz,1 48780U 21045P   24364.48727777 -.00000020  00000+0 -87135-4 0  9998,2 48780  87.9059   5.6318 0001605  88.9417 271.1897 13.15549880174022,13.1554988,0.0001605,LEO
48781,ONEWEB-0232,2021,109.46,148.0,+,87.91,Active,1,LEO,Russia,UK,Commercial,Communications,Soyuz,1 48781U 21045Q   24364.76694808  .00000151  00000+0  36690-3 0  9990,2 48781  87.9053   5.5810 0001699  90.0074 270.1251 13.15549169175506,13.15549169,0.0001699,LEO
48782,ONEWEB-0231,2021,109.46,148.0,+,87.91,Active,1,LEO,Russia,UK,Commercial,Communications,Soyuz,1 48782U 21045R   24364.44052238  .00000051  00000+0  10168-3 0  9992,2 48782  87.9068   5.7055 0001448  90.5093 269.6203 13.15550993174038,13.15550993,0.0001448,LEO
48783,ONEWEB-0234,2021,109.46,148.0,+,87.91,Active,1,LEO,Russia,UK,Commercial,Communications,Soyuz,1 48783U 21045S   24364.08004092  .00000117  00000+0  27592-3 0  9990,2 48783  87.9061   5.7212 0002806 107.7260 252.4177 13.15550786174123,13.15550786,0.0002806,LEO
48784,ONEWEB-0238,2021,109.46,148.0,+,87.91,Active,1,LEO,Russia,UK,Commercial,Communications,Soyuz,1 48784U 21045T   24364.26227583 -.00000069  00000+0 -21759-3 0  9990,2 48784  87.9060   5.7016 0001892  92.4036 267.7311 13.15549895174049,13.15549895,0.0001892,LEO
48785,ONEWEB-0240,2021,109.46,148.0,+,87.91,Active,1,LEO,Russia,UK,Commercial,Communications,Soyuz,1 48785U 21045U   24364.42388069 -.00000095  00000+0 -28723-3 0  9993,2 48785  87.9059   5.6356 0001471 102.7896 257.3399 13.15551049174096,13.15551049,0.0001471,LEO
48786,ONEWEB-0246,2021,109.46,148.0,+,87.91,Active,1,LEO,Russia,UK,Commercial,Communications,Soyuz,1 48786U 21045V   24364.41833288 -.00000065  00000+0 -20647-3 0  9995,2 48786  87.9062   5.6442 0001603  86.0146 274.1167 13.15550459173965,13.15550459,0.0001603,LEO
